SPAWAR-CAL-O            
1 43766U 18099J   26068.73975788  .00021069  00000+0  69663-3 0  9999
2 43766  97.4452 132.0993 0007239 285.0670  74.9770 15.31356755398280
STARLINK-32794          
1 62844U 25019R   26068.07419778  .00036207  00000+0  13182-2 0  9990
2 62844  42.9983  92.7239 0000630 293.8588  66.2197 15.27595370 62154
